0 FENGYUN 1C DEB
1 31290U 99025BNY 13282.17962451  .00004365  00000-0  17617-2 0  5876
2 31290 101.9530 056.0605 0135297 270.4266 088.1846 14.23870483342691
0 FENGYUN 1C DEB
1 31290U 99025BNY 13283.16334229  .00004489  00000-0  18108-2 0  5886
2 31290 101.9542 057.3952 0135183 267.6583 090.9388 14.23881165342834
0 FENGYUN 1C DEB
1 31290U 99025BNY 13284.56864881  .00004749  00000-0  19068-2 0  5899
2 31290 101.9515 059.2883 0137608 265.2845 093.3138 14.23898400343030
0 FENGYUN 1C DEB
1 31290U 99025BNY 13285.55234648  .00004912  00000-0  19717-2 0  5906
2 31290 101.9535 060.6192 0137230 263.2242 095.3525 14.23910777343170
0 FENGYUN 1C DEB
1 31290U 99025BNY 13286.60630606  .00005249  00000-0  21087-2 0  5915
2 31290 101.9507 062.0556 0135653 260.7300 097.8687 14.23925920343322
0 FENGYUN 1C DEB
1 31290U 99025BNY 13287.16841186  .00005566  00000-0  22414-2 0  5922
2 31290 101.9544 062.8320 0133121 257.5951 101.0974 14.23936975343402
0 FENGYUN 1C DEB
1 31290U 99025BNY 13291.17334804  .00007204  00000-0  28746-2 0  5938
2 31290 101.9527 068.2542 0136359 246.4680 112.6466 14.24010061343977
0 FENGYUN 1C DEB
1 31290U 99025BNY 13295.17799922  .00008458  00000-0  33540-2 0  5949
2 31290 101.9491 073.6672 0138348 237.8985 121.2195 14.24091446344548
0 FENGYUN 1C DEB
1 31290U 99025BNY 13296.16150956  .00008590  00000-0  34033-2 0  5953
2 31290 101.9518 075.0063 0138589 235.2354 123.6109 14.24110560344682
